{
  "type": "FeatureCollection",
  "features": [
    {
      "type": "Feature",
      "properties": {
        "norad_id": 31736,
        "name": "FENGYUN 1C DEB",
        "group": "fengyun-1c-debris",
        "lat": -57.7859522612814,
        "lon": 6.4080794312470175,
        "alt_km": 849.6546548451988,
        "timestamp": "2025-12-16T13:52:37.807539+00:00",
        "meta_object_name": "FENGYUN 1C DEB",
        "meta_object_id": "1999-025CEK",
        "meta_epoch": "2025-12-15T05:53:32.333568",
        "meta_mean_motion": 14.14185277,
        "meta_eccentricity": 0.00111264,
        "meta_inclination": 98.6781,
        "meta_ra_of_asc_node": 351.0859,
        "meta_arg_of_pericenter": 232.9852,
        "meta_mean_anomaly": 127.0304,
        "meta_ephemeris_type": 0,
        "meta_classification_type": "U",
        "meta_norad_cat_id": 31736,
        "meta_element_set_no": 999,
        "meta_rev_at_epoch": 64100,
        "meta_bstar": 0.00017464389,
        "meta_mean_motion_dot": 2.9e-06,
        "meta_mean_motion_ddot": 0,
        "tle_line1": "1 31736U 99025CEK 25349.24551312  .00000290  00000+0  17464-3 0  9996",
        "tle_line2": "2 31736  98.6781 351.0859 0011126 232.9852 127.0304 14.14185277641002"
      },
      "geometry": {
        "type": "Point",
        "coordinates": [
          6.4080794312470175,
          -57.7859522612814
        ]
      }
    },
    {
      "type": "Feature",
      "properties": {
        "norad_id": 31737,
        "name": "FENGYUN 1C DEB",
        "group": "fengyun-1c-debris",
        "lat": -71.17352161994594,
        "lon": 179.8823430078177,
        "alt_km": 707.8299437649039,
        "timestamp": "2025-12-16T13:52:37.807549+00:00",
        "meta_object_name": "FENGYUN 1C DEB",
        "meta_object_id": "1999-025CEL",
        "meta_epoch": "2025-12-15T21:10:06.779424",
        "meta_mean_motion": 14.68767848,
        "meta_eccentricity": 0.01484839,
        "meta_inclination": 97.9178,
        "meta_ra_of_asc_node": 23.2992,
        "meta_arg_of_pericenter": 5.7099,
        "meta_mean_anomaly": 169.7679,
        "meta_ephemeris_type": 0,
        "meta_classification_type": "U",
        "meta_norad_cat_id": 31737,
        "meta_element_set_no": 999,
        "meta_rev_at_epoch": 98245,
        "meta_bstar": 0.00041521379,
        "meta_mean_motion_dot": 2.809e-05,
        "meta_mean_motion_ddot": 0,
        "tle_line1": "1 31737U 99025CEL 25349.88202291  .00002809  00000+0  41521-3 0  9995",
        "tle_line2": "2 31737  97.9178  23.2992 0148483   5.7099 169.7679 14.68767848982451"
      },
      "geometry": {
        "type": "Point",
        "coordinates": [
          179.8823430078177,
          -71.17352161994594
        ]
      }
    },
    {
      "type": "Feature",
      "properties": {
        "norad_id": 31738,
        "name": "FENGYUN 1C DEB",
        "group": "fengyun-1c-debris",
        "lat": -34.33377326100467,
        "lon": -128.64966846389936,
        "alt_km": 1075.732762515766,
        "timestamp": "2025-12-16T13:52:37.807559+00:00",
        "meta_object_name": "FENGYUN 1C DEB",
        "meta_object_id": "1999-025CEM",
        "meta_epoch": "2025-12-11T23:39:03.757824",
        "meta_mean_motion": 13.85046302,
        "meta_eccentricity": 0.0307554,
        "meta_inclination": 99.3602,
        "meta_ra_of_asc_node": 53.2298,
        "meta_arg_of_pericenter": 102.2478,
        "meta_mean_anomaly": 261.3293,
        "meta_ephemeris_type": 0,
        "meta_classification_type": "U",
        "meta_norad_cat_id": 31738,
        "meta_element_set_no": 999,
        "meta_rev_at_epoch": 62247,
        "meta_bstar": 0.0021693,
        "meta_mean_motion_dot": 3.509e-05,
        "meta_mean_motion_ddot": 0,
        "tle_line1": "1 31738U 99025CEM 25345.98546016  .00003509  00000+0  21693-2 0  9994",
        "tle_line2": "2 31738  99.3602  53.2298 0307554 102.2478 261.3293 13.85046302622479"
      },
      "geometry": {
        "type": "Point",
        "coordinates": [
          -128.64966846389936,
          -34.33377326100467
        ]
      }
    },
    {
      "type": "Feature",
      "properties": {
        "norad_id": 31739,
        "name": "FENGYUN 1C DEB",
        "group": "fengyun-1c-debris",
        "lat": -60.418149952898155,
        "lon": -149.87589615645362,
        "alt_km": 927.1569333451735,
        "timestamp": "2025-12-16T13:52:37.807569+00:00",
        "meta_object_name": "FENGYUN 1C DEB",
        "meta_object_id": "1999-025CEN",
        "meta_epoch": "2025-12-15T21:31:16.523328",
        "meta_mean_motion": 14.19219092,
        "meta_eccentricity": 0.01283611,
        "meta_inclination": 98.7474,
        "meta_ra_of_asc_node": 45.1887,
        "meta_arg_of_pericenter": 69.2246,
        "meta_mean_anomaly": 292.2628,
        "meta_ephemeris_type": 0,
        "meta_classification_type": "U",
        "meta_norad_cat_id": 31739,
        "meta_element_set_no": 999,
        "meta_rev_at_epoch": 95531,
        "meta_bstar": 9.2649556e-05,
        "meta_mean_motion_dot": 1.68e-06,
        "meta_mean_motion_ddot": 0,
        "tle_line1": "1 31739U 99025CEN 25349.89671902  .00000168  00000+0  92650-4 0  9993",
        "tle_line2": "2 31739  98.7474  45.1887 0128361  69.2246 292.2628 14.19219092955319"
      },
      "geometry": {
        "type": "Point",
        "coordinates": [
          -149.87589615645362,
          -60.418149952898155
        ]
      }
    },
    {
      "type": "Feature",
      "properties": {
        "norad_id": 31740,
        "name": "FENGYUN 1C DEB",
        "group": "fengyun-1c-debris",
        "lat": 25.713975290436938,
        "lon": -12.721442580990809,
        "alt_km": 752.2460439543702,
        "timestamp": "2025-12-16T13:52:37.807579+00:00",
        "meta_object_name": "FENGYUN 1C DEB",
        "meta_object_id": "1999-025CEP",
        "meta_epoch": "2025-12-14T23:34:19.860384",
        "meta_mean_motion": 14.42186075,
        "meta_eccentricity": 0.00242908,
        "meta_inclination": 99.8218,
        "meta_ra_of_asc_node": 160.6587,
        "meta_arg_of_pericenter": 61.8964,
        "meta_mean_anomaly": 89.7364,
        "meta_ephemeris_type": 0,
        "meta_classification_type": "U",
        "meta_norad_cat_id": 31740,
        "meta_element_set_no": 999,
        "meta_rev_at_epoch": 65107,
        "meta_bstar": 0.00089360339,
        "meta_mean_motion_dot": 2.898e-05,
        "meta_mean_motion_ddot": 0,
        "tle_line1": "1 31740U 99025CEP 25348.98217431  .00002898  00000+0  89360-3 0  9992",
        "tle_line2": "2 31740  99.8218 160.6587 0024290  61.8964  89.7364 14.42186075651072"
      },
      "geometry": {
        "type": "Point",
        "coordinates": [
          -12.721442580990809,
          25.713975290436938
        ]
      }
    },
    {
      "type": "Feature",
      "properties": {
        "norad_id": 31742,
        "name": "FENGYUN 1C DEB",
        "group": "fengyun-1c-debris",
        "lat": -41.44174885147695,
        "lon": 22.574029190339374,
        "alt_km": 771.1560781911749,
        "timestamp": "2025-12-16T13:52:37.807602+00:00",
        "meta_object_name": "FENGYUN 1C DEB",
        "meta_object_id": "1999-025CER",
        "meta_epoch": "2025-12-15T20:09:51.774048",
        "meta_mean_motion": 14.39810323,
        "meta_eccentricity": 0.00763642,
        "meta_inclination": 98.9192,
        "meta_ra_of_asc_node": 209.7759,
        "meta_arg_of_pericenter": 320.3778,
        "meta_mean_anomaly": 39.1843,
        "meta_ephemeris_type": 0,
        "meta_classification_type": "U",
        "meta_norad_cat_id": 31742,
        "meta_element_set_no": 999,
        "meta_rev_at_epoch": 96694,
        "meta_bstar": 0.00050190865,
        "meta_mean_motion_dot": 1.58e-05,
        "meta_mean_motion_ddot": 0,
        "tle_line1": "1 31742U 99025CER 25349.84018257  .00001580  00000+0  50191-3 0  9992",
        "tle_line2": "2 31742  98.9192 209.7759 0076364 320.3778  39.1843 14.39810323966948"
      },
      "geometry": {
        "type": "Point",
        "coordinates": [
          22.574029190339374,
          -41.44174885147695
        ]
      }
    },
    {
      "type": "Feature",
      "properties": {
        "norad_id": 31743,
        "name": "FENGYUN 1C DEB",
        "group": "fengyun-1c-debris",
        "lat": -8.423392497327546,
        "lon": 97.3289515029556,
        "alt_km": 765.9096464194536,
        "timestamp": "2025-12-16T13:52:37.807614+00:00",
        "meta_object_name": "FENGYUN 1C DEB",
        "meta_object_id": "1999-025CES",
        "meta_epoch": "2025-12-13T06:51:50.109696",
        "meta_mean_motion": 14.31305907,
        "meta_eccentricity": 0.00373412,
        "meta_inclination": 99.1413,
        "meta_ra_of_asc_node": 275.2327,
        "meta_arg_of_pericenter": 217.3028,
        "meta_mean_anomaly": 296.6917,
        "meta_ephemeris_type": 0,
        "meta_classification_type": "U",
        "meta_norad_cat_id": 31743,
        "meta_element_set_no": 999,
        "meta_rev_at_epoch": 95648,
        "meta_bstar": 0.0026530852,
        "meta_mean_motion_dot": 7.034e-05,
        "meta_mean_motion_ddot": 0,
        "tle_line1": "1 31743U 99025CES 25347.28599664  .00007034  00000+0  26531-2 0  9995",
        "tle_line2": "2 31743  99.1413 275.2327 0037341 217.3028 296.6917 14.31305907956481"
      },
      "geometry": {
        "type": "Point",
        "coordinates": [
          97.3289515029556,
          -8.423392497327546
        ]
      }
    }
  ]
}